[
  {
    "id": "address_1",
    "title": "Address 1",
    "fullName": "John Doe 1",
    "phoneNumber": "+905358568177",
    "city": "Antalya",
    "district": "Beyoglu",
    "neighborhood": "Neighborhood 20",
    "addressLine": "Street 76, Building 5, Apartment 20",
    "postalCode": "54728",
    "isDefault": true
  },
  {
    "id": "address_2",
    "title": "Address 2",
    "fullName": "John Doe 2",
    "phoneNumber": "+905358555741",
    "city": "Bursa",
    "district": "Kadikoy",
    "neighborhood": "Neighborhood 13",
    "addressLine": "Street 79, Building 37, Apartment 6",
    "postalCode": "54852",
    "isDefault": false
  },
  {
    "id": "address_3",
    "title": "Address 3",
    "fullName": "John Doe 3",
    "phoneNumber": "+905393665037",
    "city": "Mersin",
    "district": "Merkez",
    "neighborhood": "Neighborhood 43",
    "addressLine": "Street 100, Building 49, Apartment 16",
    "postalCode": "55987",
    "isDefault": false
  },
  {
    "id": "address_4",
    "title": "Address 4",
    "fullName": "John Doe 4",
    "phoneNumber": "+905329974305",
    "city": "Adana",
    "district": "Uskudar",
    "neighborhood": "Neighborhood 35",
    "addressLine": "Street 85, Building 40, Apartment 10",
    "postalCode": "62563",
    "isDefault": false
  },
  {
    "id": "address_5",
    "title": "Address 5",
    "fullName": "John Doe 5",
    "phoneNumber": "+905383541246",
    "city": "Antalya",
    "district": "Fatih",
    "neighborhood": "Neighborhood 47",
    "addressLine": "Street 24, Building 5, Apartment 9",
    "postalCode": "27936",
    "isDefault": false
  },
  {
    "id": "address_6",
    "title": "Address 6",
    "fullName": "John Doe 6",
    "phoneNumber": "+905333298843",
    "city": "Konya",
    "district": "Maltepe",
    "neighborhood": "Neighborhood 25",
    "addressLine": "Street 99, Building 27, Apartment 1",
    "postalCode": "61555",
    "isDefault": false
  },
  {
    "id": "address_7",
    "title": "Address 7",
    "fullName": "John Doe 7",
    "phoneNumber": "+905312226647",
    "city": "Ankara",
    "district": "Maltepe",
    "neighborhood": "Neighborhood 14",
    "addressLine": "Street 44, Building 13, Apartment 12",
    "postalCode": "12759",
    "isDefault": false
  },
  {
    "id": "address_8",
    "title": "Address 8",
    "fullName": "John Doe 8",
    "phoneNumber": "+905339941576",
    "city": "Ankara",
    "district": "Uskudar",
    "neighborhood": "Neighborhood 48",
    "addressLine": "Street 19, Building 2, Apartment 4",
    "postalCode": "78625",
    "isDefault": false
  },
  {
    "id": "address_9",
    "title": "Address 9",
    "fullName": "John Doe 9",
    "phoneNumber": "+905327872403",
    "city": "Istanbul",
    "district": "Sisli",
    "neighborhood": "Neighborhood 26",
    "addressLine": "Street 68, Building 41, Apartment 2",
    "postalCode": "49870",
    "isDefault": false
  },
  {
    "id": "address_10",
    "title": "Address 10",
    "fullName": "John Doe 10",
    "phoneNumber": "+905362745322",
    "city": "Konya",
    "district": "Uskudar",
    "neighborhood": "Neighborhood 39",
    "addressLine": "Street 94, Building 3, Apartment 11",
    "postalCode": "20550",
    "isDefault": false
  },
  {
    "id": "address_11",
    "title": "Address 11",
    "fullName": "John Doe 11",
    "phoneNumber": "+905338629888",
    "city": "Mersin",
    "district": "Merkez",
    "neighborhood": "Neighborhood 22",
    "addressLine": "Street 54, Building 30, Apartment 9",
    "postalCode": "64125",
    "isDefault": false
  },
  {
    "id": "address_12",
    "title": "Address 12",
    "fullName": "John Doe 12",
    "phoneNumber": "+905340625139",
    "city": "Adana",
    "district": "Besiktas",
    "neighborhood": "Neighborhood 32",
    "addressLine": "Street 59, Building 11, Apartment 5",
    "postalCode": "91817",
    "isDefault": false
  },
  {
    "id": "address_13",
    "title": "Address 13",
    "fullName": "John Doe 13",
    "phoneNumber": "+905392796095",
    "city": "Izmir",
    "district": "Uskudar",
    "neighborhood": "Neighborhood 32",
    "addressLine": "Street 68, Building 27, Apartment 2",
    "postalCode": "91771",
    "isDefault": false
  },
  {
    "id": "address_14",
    "title": "Address 14",
    "fullName": "John Doe 14",
    "phoneNumber": "+905361704205",
    "city": "Izmir",
    "district": "Kadikoy",
    "neighborhood": "Neighborhood 8",
    "addressLine": "Street 52, Building 38, Apartment 19",
    "postalCode": "49509",
    "isDefault": false
  },
  {
    "id": "address_15",
    "title": "Address 15",
    "fullName": "John Doe 15",
    "phoneNumber": "+905331762279",
    "city": "Izmir",
    "district": "Uskudar",
    "neighborhood": "Neighborhood 48",
    "addressLine": "Street 5, Building 6, Apartment 14",
    "postalCode": "15616",
    "isDefault": false
  },
  {
    "id": "address_16",
    "title": "Address 16",
    "fullName": "John Doe 16",
    "phoneNumber": "+905396098208",
    "city": "Bursa",
    "district": "Maltepe",
    "neighborhood": "Neighborhood 45",
    "addressLine": "Street 59, Building 6, Apartment 16",
    "postalCode": "22370",
    "isDefault": false
  },
  {
    "id": "address_17",
    "title": "Address 17",
    "fullName": "John Doe 17",
    "phoneNumber": "+905384454321",
    "city": "Gaziantep",
    "district": "Beyoglu",
    "neighborhood": "Neighborhood 49",
    "addressLine": "Street 24, Building 26, Apartment 13",
    "postalCode": "82736",
    "isDefault": false
  },
  {
    "id": "address_18",
    "title": "Address 18",
    "fullName": "John Doe 18",
    "phoneNumber": "+905367871745",
    "city": "Adana",
    "district": "Beyoglu",
    "neighborhood": "Neighborhood 10",
    "addressLine": "Street 69, Building 30, Apartment 19",
    "postalCode": "99367",
    "isDefault": false
  },
  {
    "id": "address_19",
    "title": "Address 19",
    "fullName": "John Doe 19",
    "phoneNumber": "+905345530295",
    "city": "Adana",
    "district": "Maltepe",
    "neighborhood": "Neighborhood 48",
    "addressLine": "Street 37, Building 10, Apartment 9",
    "postalCode": "98793",
    "isDefault": false
  },
  {
    "id": "address_20",
    "title": "Address 20",
    "fullName": "John Doe 20",
    "phoneNumber": "+905386162058",
    "city": "Diyarbakir",
    "district": "Fatih",
    "neighborhood": "Neighborhood 46",
    "addressLine": "Street 40, Building 6, Apartment 5",
    "postalCode": "92154",
    "isDefault": false
  },
  {
    "id": "address_21",
    "title": "Address 21",
    "fullName": "John Doe 21",
    "phoneNumber": "+905313818619",
    "city": "Antalya",
    "district": "Pendik",
    "neighborhood": "Neighborhood 40",
    "addressLine": "Street 6, Building 46, Apartment 5",
    "postalCode": "45414",
    "isDefault": false
  },
  {
    "id": "address_22",
    "title": "Address 22",
    "fullName": "John Doe 22",
    "phoneNumber": "+905350763529",
    "city": "Bursa",
    "district": "Fatih",
    "neighborhood": "Neighborhood 28",
    "addressLine": "Street 13, Building 27, Apartment 17",
    "postalCode": "84795",
    "isDefault": false
  },
  {
    "id": "address_23",
    "title": "Address 23",
    "fullName": "John Doe 23",
    "phoneNumber": "+905311830150",
    "city": "Mersin",
    "district": "Pendik",
    "neighborhood": "Neighborhood 48",
    "addressLine": "Street 55, Building 32, Apartment 6",
    "postalCode": "49088",
    "isDefault": false
  },
  {
    "id": "address_24",
    "title": "Address 24",
    "fullName": "John Doe 24",
    "phoneNumber": "+905357356359",
    "city": "Izmir",
    "district": "Besiktas",
    "neighborhood": "Neighborhood 14",
    "addressLine": "Street 59, Building 17, Apartment 14",
    "postalCode": "19835",
    "isDefault": false
  },
  {
    "id": "address_25",
    "title": "Address 25",
    "fullName": "John Doe 25",
    "phoneNumber": "+905336434698",
    "city": "Antalya",
    "district": "Kartal",
    "neighborhood": "Neighborhood 24",
    "addressLine": "Street 30, Building 38, Apartment 14",
    "postalCode": "14163",
    "isDefault": false
  },
  {
    "id": "address_26",
    "title": "Address 26",
    "fullName": "John Doe 26",
    "phoneNumber": "+905376239391",
    "city": "Istanbul",
    "district": "Pendik",
    "neighborhood": "Neighborhood 5",
    "addressLine": "Street 40, Building 24, Apartment 12",
    "postalCode": "44860",
    "isDefault": false
  },
  {
    "id": "address_27",
    "title": "Address 27",
    "fullName": "John Doe 27",
    "phoneNumber": "+905335895240",
    "city": "Diyarbakir",
    "district": "Maltepe",
    "neighborhood": "Neighborhood 16",
    "addressLine": "Street 95, Building 42, Apartment 3",
    "postalCode": "72302",
    "isDefault": false
  },
  {
    "id": "address_28",
    "title": "Address 28",
    "fullName": "John Doe 28",
    "phoneNumber": "+905393424564",
    "city": "Istanbul",
    "district": "Sisli",
    "neighborhood": "Neighborhood 8",
    "addressLine": "Street 37, Building 49, Apartment 7",
    "postalCode": "41960",
    "isDefault": false
  },
  {
    "id": "address_29",
    "title": "Address 29",
    "fullName": "John Doe 29",
    "phoneNumber": "+905358789407",
    "city": "Ankara",
    "district": "Beyoglu",
    "neighborhood": "Neighborhood 15",
    "addressLine": "Street 8, Building 38, Apartment 3",
    "postalCode": "29065",
    "isDefault": false
  },
  {
    "id": "address_30",
    "title": "Address 30",
    "fullName": "John Doe 30",
    "phoneNumber": "+905334570254",
    "city": "Konya",
    "district": "Fatih",
    "neighborhood": "Neighborhood 15",
    "addressLine": "Street 61, Building 23, Apartment 6",
    "postalCode": "20509",
    "isDefault": false
  },
  {
    "id": "address_31",
    "title": "Address 31",
    "fullName": "John Doe 31",
    "phoneNumber": "+905317084914",
    "city": "Diyarbakir",
    "district": "Merkez",
    "neighborhood": "Neighborhood 9",
    "addressLine": "Street 7, Building 8, Apartment 16",
    "postalCode": "13698",
    "isDefault": false
  },
  {
    "id": "address_32",
    "title": "Address 32",
    "fullName": "John Doe 32",
    "phoneNumber": "+905325065398",
    "city": "Ankara",
    "district": "Kadikoy",
    "neighborhood": "Neighborhood 35",
    "addressLine": "Street 74, Building 10, Apartment 2",
    "postalCode": "97938",
    "isDefault": false
  },
  {
    "id": "address_33",
    "title": "Address 33",
    "fullName": "John Doe 33",
    "phoneNumber": "+905345672437",
    "city": "Istanbul",
    "district": "Besiktas",
    "neighborhood": "Neighborhood 33",
    "addressLine": "Street 32, Building 7, Apartment 11",
    "postalCode": "79920",
    "isDefault": false
  },
  {
    "id": "address_34",
    "title": "Address 34",
    "fullName": "John Doe 34",
    "phoneNumber": "+905321576390",
    "city": "Diyarbakir",
    "district": "Kadikoy",
    "neighborhood": "Neighborhood 39",
    "addressLine": "Street 64, Building 35, Apartment 7",
    "postalCode": "30481",
    "isDefault": false
  },
  {
    "id": "address_35",
    "title": "Address 35",
    "fullName": "John Doe 35",
    "phoneNumber": "+905399610898",
    "city": "Antalya",
    "district": "Kadikoy",
    "neighborhood": "Neighborhood 44",
    "addressLine": "Street 4, Building 24, Apartment 8",
    "postalCode": "85274",
    "isDefault": false
  },
  {
    "id": "address_36",
    "title": "Address 36",
    "fullName": "John Doe 36",
    "phoneNumber": "+905324854902",
    "city": "Konya",
    "district": "Kartal",
    "neighborhood": "Neighborhood 10",
    "addressLine": "Street 56, Building 19, Apartment 12",
    "postalCode": "67123",
    "isDefault": false
  },
  {
    "id": "address_37",
    "title": "Address 37",
    "fullName": "John Doe 37",
    "phoneNumber": "+905317230445",
    "city": "Diyarbakir",
    "district": "Beyoglu",
    "neighborhood": "Neighborhood 15",
    "addressLine": "Street 70, Building 45, Apartment 15",
    "postalCode": "32904",
    "isDefault": false
  },
  {
    "id": "address_38",
    "title": "Address 38",
    "fullName": "John Doe 38",
    "phoneNumber": "+905383366351",
    "city": "Konya",
    "district": "Maltepe",
    "neighborhood": "Neighborhood 44",
    "addressLine": "Street 7, Building 47, Apartment 4",
    "postalCode": "31111",
    "isDefault": false
  },
  {
    "id": "address_39",
    "title": "Address 39",
    "fullName": "John Doe 39",
    "phoneNumber": "+905339129836",
    "city": "Adana",
    "district": "Merkez",
    "neighborhood": "Neighborhood 8",
    "addressLine": "Street 55, Building 34, Apartment 11",
    "postalCode": "70772",
    "isDefault": false
  },
  {
    "id": "address_40",
    "title": "Address 40",
    "fullName": "John Doe 40",
    "phoneNumber": "+905341529534",
    "city": "Istanbul",
    "district": "Kartal",
    "neighborhood": "Neighborhood 12",
    "addressLine": "Street 84, Building 27, Apartment 9",
    "postalCode": "92155",
    "isDefault": false
  },
  {
    "id": "address_41",
    "title": "Address 41",
    "fullName": "John Doe 41",
    "phoneNumber": "+905343639434",
    "city": "Adana",
    "district": "Uskudar",
    "neighborhood": "Neighborhood 24",
    "addressLine": "Street 56, Building 39, Apartment 3",
    "postalCode": "38846",
    "isDefault": false
  },
  {
    "id": "address_42",
    "title": "Address 42",
    "fullName": "John Doe 42",
    "phoneNumber": "+905330173969",
    "city": "Mersin",
    "district": "Pendik",
    "neighborhood": "Neighborhood 28",
    "addressLine": "Street 13, Building 6, Apartment 1",
    "postalCode": "59779",
    "isDefault": false
  },
  {
    "id": "address_43",
    "title": "Address 43",
    "fullName": "John Doe 43",
    "phoneNumber": "+905316715314",
    "city": "Diyarbakir",
    "district": "Besiktas",
    "neighborhood": "Neighborhood 24",
    "addressLine": "Street 43, Building 37, Apartment 4",
    "postalCode": "66678",
    "isDefault": false
  },
  {
    "id": "address_44",
    "title": "Address 44",
    "fullName": "John Doe 44",
    "phoneNumber": "+905394402026",
    "city": "Gaziantep",
    "district": "Pendik",
    "neighborhood": "Neighborhood 1",
    "addressLine": "Street 49, Building 22, Apartment 18",
    "postalCode": "40148",
    "isDefault": false
  },
  {
    "id": "address_45",
    "title": "Address 45",
    "fullName": "John Doe 45",
    "phoneNumber": "+905342942323",
    "city": "Konya",
    "district": "Fatih",
    "neighborhood": "Neighborhood 3",
    "addressLine": "Street 44, Building 3, Apartment 12",
    "postalCode": "35230",
    "isDefault": false
  },
  {
    "id": "address_46",
    "title": "Address 46",
    "fullName": "John Doe 46",
    "phoneNumber": "+905320538234",
    "city": "Diyarbakir",
    "district": "Merkez",
    "neighborhood": "Neighborhood 42",
    "addressLine": "Street 93, Building 50, Apartment 16",
    "postalCode": "76514",
    "isDefault": false
  },
  {
    "id": "address_47",
    "title": "Address 47",
    "fullName": "John Doe 47",
    "phoneNumber": "+905344489824",
    "city": "Gaziantep",
    "district": "Merkez",
    "neighborhood": "Neighborhood 11",
    "addressLine": "Street 66, Building 31, Apartment 14",
    "postalCode": "31421",
    "isDefault": false
  },
  {
    "id": "address_48",
    "title": "Address 48",
    "fullName": "John Doe 48",
    "phoneNumber": "+905389769838",
    "city": "Istanbul",
    "district": "Beyoglu",
    "neighborhood": "Neighborhood 4",
    "addressLine": "Street 2, Building 42, Apartment 19",
    "postalCode": "60091",
    "isDefault": false
  },
  {
    "id": "address_49",
    "title": "Address 49",
    "fullName": "John Doe 49",
    "phoneNumber": "+905397896568",
    "city": "Konya",
    "district": "Pendik",
    "neighborhood": "Neighborhood 22",
    "addressLine": "Street 75, Building 41, Apartment 14",
    "postalCode": "35769",
    "isDefault": false
  },
  {
    "id": "address_50",
    "title": "Address 50",
    "fullName": "John Doe 50",
    "phoneNumber": "+905317478320",
    "city": "Antalya",
    "district": "Merkez",
    "neighborhood": "Neighborhood 23",
    "addressLine": "Street 41, Building 16, Apartment 2",
    "postalCode": "63372",
    "isDefault": false
  }
]